{
  "type": "FeatureCollection",
  "features": [
    {
      "type": "Feature",
      "properties": {
        "norad_id": 33748,
        "name": "FENGYUN 1C DEB",
        "group": "fengyun-1c-debris",
        "lat": -5.212248376972144,
        "lon": 46.26744255919434,
        "alt_km": 805.6144476223881,
        "timestamp": "2025-12-20T09:36:01.932453+00:00",
        "meta_object_name": "FENGYUN 1C DEB",
        "meta_object_id": "1999-025DJM",
        "meta_epoch": "2025-12-18T09:00:17.907264",
        "meta_mean_motion": 14.32320474,
        "meta_eccentricity": 0.0034784,
        "meta_inclination": 98.5864,
        "meta_ra_of_asc_node": 43.4732,
        "meta_arg_of_pericenter": 224.1602,
        "meta_mean_anomaly": 135.6804,
        "meta_ephemeris_type": 0,
        "meta_classification_type": "U",
        "meta_norad_cat_id": 33748,
        "meta_element_set_no": 999,
        "meta_rev_at_epoch": 91474,
        "meta_bstar": 0.001055977,
        "meta_mean_motion_dot": 2.827e-05,
        "meta_mean_motion_ddot": 0,
        "tle_line1": "1 33748U 99025DJM 25352.37520726  .00002827  00000+0  10560-2 0  9991",
        "tle_line2": "2 33748  98.5864  43.4732 0034784 224.1602 135.6804 14.32320474914745"
      },
      "geometry": {
        "type": "Point",
        "coordinates": [
          46.26744255919434,
          -5.212248376972144
        ]
      }
    },
    {
      "type": "Feature",
      "properties": {
        "norad_id": 35088,
        "name": "FENGYUN 1C DEB",
        "group": "fengyun-1c-debris",
        "lat": -53.7784725595714,
        "lon": -20.060916382486745,
        "alt_km": 743.5297331706297,
        "timestamp": "2025-12-20T09:36:01.932463+00:00",
        "meta_object_name": "FENGYUN 1C DEB",
        "meta_object_id": "1999-025DJQ",
        "meta_epoch": "2025-12-19T05:17:52.170144",
        "meta_mean_motion": 14.12152512,
        "meta_eccentricity": 0.0266617,
        "meta_inclination": 94.6212,
        "meta_ra_of_asc_node": 165.6685,
        "meta_arg_of_pericenter": 183.1863,
        "meta_mean_anomaly": 176.7634,
        "meta_ephemeris_type": 0,
        "meta_classification_type": "U",
        "meta_norad_cat_id": 35088,
        "meta_element_set_no": 999,
        "meta_rev_at_epoch": 58891,
        "meta_bstar": 0.0046664,
        "meta_mean_motion_dot": 0.0001199,
        "meta_mean_motion_ddot": 0,
        "tle_line1": "1 35088U 99025DJQ 25353.22074271  .00011990  00000+0  46664-2 0  9999",
        "tle_line2": "2 35088  94.6212 165.6685 0266617 183.1863 176.7634 14.12152512588914"
      },
      "geometry": {
        "type": "Point",
        "coordinates": [
          -20.060916382486745,
          -53.7784725595714
        ]
      }
    },
    {
      "type": "Feature",
      "properties": {
        "norad_id": 35089,
        "name": "FENGYUN 1C DEB",
        "group": "fengyun-1c-debris",
        "lat": -17.03652886233408,
        "lon": 6.625840855540579,
        "alt_km": 821.7424124047848,
        "timestamp": "2025-12-20T09:36:01.932473+00:00",
        "meta_object_name": "FENGYUN 1C DEB",
        "meta_object_id": "1999-025DJR",
        "meta_epoch": "2025-12-19T23:31:50.352096",
        "meta_mean_motion": 14.19435221,
        "meta_eccentricity": 0.0028719,
        "meta_inclination": 98.559,
        "meta_ra_of_asc_node": 3.5754,
        "meta_arg_of_pericenter": 44.1764,
        "meta_mean_anomaly": 316.1699,
        "meta_ephemeris_type": 0,
        "meta_classification_type": "U",
        "meta_norad_cat_id": 35089,
        "meta_element_set_no": 999,
        "meta_rev_at_epoch": 60978,
        "meta_bstar": 0.00043746,
        "meta_mean_motion_dot": 8.82e-06,
        "meta_mean_motion_ddot": 0,
        "tle_line1": "1 35089U 99025DJR 25353.98044389  .00000882  00000+0  43746-3 0  9997",
        "tle_line2": "2 35089  98.5590   3.5754 0028719  44.1764 316.1699 14.19435221609787"
      },
      "geometry": {
        "type": "Point",
        "coordinates": [
          6.625840855540579,
          -17.03652886233408
        ]
      }
    },
    {
      "type": "Feature",
      "properties": {
        "norad_id": 35090,
        "name": "FENGYUN 1C DEB",
        "group": "fengyun-1c-debris",
        "lat": -71.73181874484533,
        "lon": 157.9625496477601,
        "alt_km": 846.6372765359147,
        "timestamp": "2025-12-20T09:36:01.932483+00:00",
        "meta_object_name": "FENGYUN 1C DEB",
        "meta_object_id": "1999-025DJS",
        "meta_epoch": "2025-12-15T11:31:21.871200",
        "meta_mean_motion": 14.17610468,
        "meta_eccentricity": 0.00548506,
        "meta_inclination": 99.1994,
        "meta_ra_of_asc_node": 2.2725,
        "meta_arg_of_pericenter": 7.0781,
        "meta_mean_anomaly": 353.1155,
        "meta_ephemeris_type": 0,
        "meta_classification_type": "U",
        "meta_norad_cat_id": 35090,
        "meta_element_set_no": 999,
        "meta_rev_at_epoch": 66289,
        "meta_bstar": 0.0011364277,
        "meta_mean_motion_dot": 2.298e-05,
        "meta_mean_motion_ddot": 0,
        "tle_line1": "1 35090U 99025DJS 25349.48011425  .00002298  00000+0  11364-2 0  9997",
        "tle_line2": "2 35090  99.1994   2.2725 0054850   7.0781 353.1155 14.17610468662895"
      },
      "geometry": {
        "type": "Point",
        "coordinates": [
          157.9625496477601,
          -71.73181874484533
        ]
      }
    },
    {
      "type": "Feature",
      "properties": {
        "norad_id": 35091,
        "name": "FENGYUN 1C DEB",
        "group": "fengyun-1c-debris",
        "lat": 1.0855661054414922,
        "lon": 98.83235782984897,
        "alt_km": 692.1262551181189,
        "timestamp": "2025-12-20T09:36:01.932493+00:00",
        "meta_object_name": "FENGYUN 1C DEB",
        "meta_object_id": "1999-025DJT",
        "meta_epoch": "2025-12-19T05:40:00.748992",
        "meta_mean_motion": 14.61713207,
        "meta_eccentricity": 0.0049136,
        "meta_inclination": 98.5976,
        "meta_ra_of_asc_node": 97.7869,
        "meta_arg_of_pericenter": 271.6969,
        "meta_mean_anomaly": 87.8603,
        "meta_ephemeris_type": 0,
        "meta_classification_type": "U",
        "meta_norad_cat_id": 35091,
        "meta_element_set_no": 999,
        "meta_rev_at_epoch": 90022,
        "meta_bstar": 0.0018836,
        "meta_mean_motion_dot": 9.504e-05,
        "meta_mean_motion_ddot": 0,
        "tle_line1": "1 35091U 99025DJT 25353.23611978  .00009504  00000+0  18836-2 0  9993",
        "tle_line2": "2 35091  98.5976  97.7869 0049136 271.6969  87.8603 14.61713207900220"
      },
      "geometry": {
        "type": "Point",
        "coordinates": [
          98.83235782984897,
          1.0855661054414922
        ]
      }
    },
    {
      "type": "Feature",
      "properties": {
        "norad_id": 35102,
        "name": "FENGYUN 1C DEB",
        "group": "fengyun-1c-debris",
        "lat": -28.96563598496968,
        "lon": 9.200761082375012,
        "alt_km": 807.4026867856428,
        "timestamp": "2025-12-20T09:36:01.932503+00:00",
        "meta_object_name": "FENGYUN 1C DEB",
        "meta_object_id": "1999-025DKE",
        "meta_epoch": "2025-12-13T06:19:02.409312",
        "meta_mean_motion": 14.28874039,
        "meta_eccentricity": 0.00607637,
        "meta_inclination": 98.4802,
        "meta_ra_of_asc_node": 357.5239,
        "meta_arg_of_pericenter": 90.2418,
        "meta_mean_anomaly": 270.5727,
        "meta_ephemeris_type": 0,
        "meta_classification_type": "U",
        "meta_norad_cat_id": 35102,
        "meta_element_set_no": 999,
        "meta_rev_at_epoch": 64920,
        "meta_bstar": 0.00073405609,
        "meta_mean_motion_dot": 1.848e-05,
        "meta_mean_motion_ddot": 0,
        "tle_line1": "1 35102U 99025DKE 25347.26322233  .00001848  00000+0  73406-3 0  9993",
        "tle_line2": "2 35102  98.4802 357.5239 0060763  90.2418 270.5727 14.28874039649201"
      },
      "geometry": {
        "type": "Point",
        "coordinates": [
          9.200761082375012,
          -28.96563598496968
        ]
      }
    },
    {
      "type": "Feature",
      "properties": {
        "norad_id": 35104,
        "name": "FENGYUN 1C DEB",
        "group": "fengyun-1c-debris",
        "lat": -76.95222179361994,
        "lon": 140.14509267129716,
        "alt_km": 849.0496901554443,
        "timestamp": "2025-12-20T09:36:01.932515+00:00",
        "meta_object_name": "FENGYUN 1C DEB",
        "meta_object_id": "1999-025DKG",
        "meta_epoch": "2025-12-19T07:05:48.046272",
        "meta_mean_motion": 14.20339512,
        "meta_eccentricity": 0.0031435,
        "meta_inclination": 98.5954,
        "meta_ra_of_asc_node": 359.8138,
        "meta_arg_of_pericenter": 122.4536,
        "meta_mean_anomaly": 253.9667,
        "meta_ephemeris_type": 0,
        "meta_classification_type": "U",
        "meta_norad_cat_id": 35104,
        "meta_element_set_no": 999,
        "meta_rev_at_epoch": 89860,
        "meta_bstar": 0.00030745,
        "meta_mean_motion_dot": 6.19e-06,
        "meta_mean_motion_ddot": 0,
        "tle_line1": "1 35104U 99025DKG 25353.29569498  .00000619  00000+0  30745-3 0  9995",
        "tle_line2": "2 35104  98.5954 359.8138 0031435 122.4536 253.9667 14.20339512898600"
      },
      "geometry": {
        "type": "Point",
        "coordinates": [
          140.14509267129716,
          -76.95222179361994
        ]
      }
    }
  ]
}